STARLINK-36456          
1 67357U 26003Z   26017.25002315 -.01645546  77655-3 -40579-2 0  9996
2 67357  42.9983 165.5044 0001466 271.3416 187.0342 15.95186451  2407
STARLINK-36466          
1 67358U 26003AA  26017.25002315 -.01649150  78019-3 -40532-2 0  9996
2 67358  42.9984 165.4986 0001456 269.9769 190.6608 15.95248661  2403
STARLINK-36499          
1 67359U 26003AB  26017.25002315 -.01664728  79436-3 -40778-2 0  9991
2 67359  42.9984 165.4941 0001599 273.4222 188.9876 15.95312562  2406
STARLINK-36469          
1 67360U 26003AC  26017.25002315 -.01675009  80402-3 -40880-2 0  9996
2 67360  42.9984 165.4885 0001578 273.1721 191.4520 15.95381827  2408
STARLINK-35306          
1 67361U 26003AD  26017.25002315 -.01662542  79336-3 -40474-2 0  9998
2 67361  42.9981 165.4840 0001595 270.9177 195.4199 15.95426297  2346
STARLINK-36428          
1 67362U 26003AE  26017.25002315 -.01677649  80729-3 -40696-2 0  9997
2 67362  42.9982 165.4783 0001535 271.1182 197.3275 15.95494317  2408
SHIJIAN-29B (SJ-29B)    
1 67403U 25315C   26017.09918124 -.00000053  00000+0  00000+0 0  9993
2 67403   3.0148  99.1080 0000888 326.8042 159.4113  1.00271776   177
YAOGAN-50 01            
1 67433U 26006A   26016.17880840  .00000537  00000+0  12658-3 0  9997
2 67433 141.9984 200.7842 0164962 123.7171 237.9391 14.21837795   375
CZ-6A R/B               
1 67434U 26006B   26013.71733058  .00000541  00000+0  30805-4 0  9993
2 67434 142.0438 188.1412 0201725  82.0696 280.2897 14.62247694    24
HULIANWANG DIGUI 18A    
1 67435U 26007A   26016.41566249 -.00000116  00000+0  23935-4 0  9996
2 67435  50.0089 283.4039 0008428 279.5288  80.4659 13.92120172   393
HULIANWANG DIGUI 18B    
1 67436U 26007B   26016.41588649 -.00000116  00000+0  23911-4 0  9999
2 67436  50.0068 283.4030 0007500 267.7404  92.2637 13.92012828   396
HULIANWANG DIGUI 18C    
1 67437U 26007C   26017.06189362 -.00000039  00000+0  83972-4 0  9998
2 67437  50.0026 280.8194 0008178 276.7059  83.2909 13.92053046   480
