CCSDS_OMM_VERS = 2.0
CREATION_DATE  = 
ORIGINATOR     = 

OBJECT_NAME    = STARLINK-36456
OBJECT_ID      = 2026-003Z
CENTER_NAME    = EARTH
REF_FRAME      = TEME
TIME_SYSTEM    = UTC
MEAN_ELEMENT_THEORY = SGP/SGP4

EPOCH          = 2026-01-17T06:00:02.000160
MEAN_MOTION    = 15.95186451
ECCENTRICITY   = .00014667
INCLINATION    = 42.9983
RA_OF_ASC_NODE = 165.5044
ARG_OF_PERICENTER = 271.3416
MEAN_ANOMALY   = 187.0342

EPHEMERIS_TYPE = 0
CLASSIFICATION_TYPE = U
NORAD_CAT_ID   = 67357
ELEMENT_SET_NO = 999
REV_AT_EPOCH   = 240
BSTAR          = -.4057854E-2
MEAN_MOTION_DOT = -.1645546E-1
MEAN_MOTION_DDOT = .77655413E-3

CCSDS_OMM_VERS = 2.0
CREATION_DATE  = 
ORIGINATOR     = 

OBJECT_NAME    = STARLINK-36466
OBJECT_ID      = 2026-003AA
CENTER_NAME    = EARTH
REF_FRAME      = TEME
TIME_SYSTEM    = UTC
MEAN_ELEMENT_THEORY = SGP/SGP4

EPOCH          = 2026-01-17T06:00:02.000160
MEAN_MOTION    = 15.95248661
ECCENTRICITY   = .00014565
INCLINATION    = 42.9984
RA_OF_ASC_NODE = 165.4986
ARG_OF_PERICENTER = 269.9769
MEAN_ANOMALY   = 190.6608

EPHEMERIS_TYPE = 0
CLASSIFICATION_TYPE = U
NORAD_CAT_ID   = 67358
ELEMENT_SET_NO = 999
REV_AT_EPOCH   = 240
BSTAR          = -.40532109E-2
MEAN_MOTION_DOT = -.164915E-1
MEAN_MOTION_DDOT = .78018896E-3

CCSDS_OMM_VERS = 2.0
CREATION_DATE  = 
ORIGINATOR     = 

OBJECT_NAME    = STARLINK-36499
OBJECT_ID      = 2026-003AB
CENTER_NAME    = EARTH
REF_FRAME      = TEME
TIME_SYSTEM    = UTC
MEAN_ELEMENT_THEORY = SGP/SGP4

EPOCH          = 2026-01-17T06:00:02.000160
MEAN_MOTION    = 15.95312562
ECCENTRICITY   = .00015991
INCLINATION    = 42.9984
RA_OF_ASC_NODE = 165.4941
ARG_OF_PERICENTER = 273.4222
MEAN_ANOMALY   = 188.9876

EPHEMERIS_TYPE = 0
CLASSIFICATION_TYPE = U
NORAD_CAT_ID   = 67359
ELEMENT_SET_NO = 999
REV_AT_EPOCH   = 240
BSTAR          = -.40777867E-2
MEAN_MOTION_DOT = -.1664728E-1
MEAN_MOTION_DDOT = .79436429E-3

CCSDS_OMM_VERS = 2.0
CREATION_DATE  = 
ORIGINATOR     = 

OBJECT_NAME    = STARLINK-36469
OBJECT_ID      = 2026-003AC
CENTER_NAME    = EARTH
REF_FRAME      = TEME
TIME_SYSTEM    = UTC
MEAN_ELEMENT_THEORY = SGP/SGP4

EPOCH          = 2026-01-17T06:00:02.000160
MEAN_MOTION    = 15.95381827
ECCENTRICITY   = .00015789
INCLINATION    = 42.9984
RA_OF_ASC_NODE = 165.4885
ARG_OF_PERICENTER = 273.1721
MEAN_ANOMALY   = 191.4520

EPHEMERIS_TYPE = 0
CLASSIFICATION_TYPE = U
NORAD_CAT_ID   = 67360
ELEMENT_SET_NO = 999
REV_AT_EPOCH   = 240
BSTAR          = -.40879566E-2
MEAN_MOTION_DOT = -.1675009E-1
MEAN_MOTION_DDOT = .80401711E-3

CCSDS_OMM_VERS = 2.0
CREATION_DATE  = 
ORIGINATOR     = 

OBJECT_NAME    = STARLINK-35306
OBJECT_ID      = 2026-003AD
CENTER_NAME    = EARTH
REF_FRAME      = TEME
TIME_SYSTEM    = UTC
MEAN_ELEMENT_THEORY = SGP/SGP4

EPOCH          = 2026-01-17T06:00:02.000160
MEAN_MOTION    = 15.95426297
ECCENTRICITY   = .0001595
INCLINATION    = 42.9981
RA_OF_ASC_NODE = 165.4840
ARG_OF_PERICENTER = 270.9177
MEAN_ANOMALY   = 195.4199

EPHEMERIS_TYPE = 0
CLASSIFICATION_TYPE = U
NORAD_CAT_ID   = 67361
ELEMENT_SET_NO = 999
REV_AT_EPOCH   = 234
BSTAR          = -.40473625E-2
MEAN_MOTION_DOT = -.1662542E-1
MEAN_MOTION_DDOT = .79335966E-3

CCSDS_OMM_VERS = 2.0
CREATION_DATE  = 
ORIGINATOR     = 

OBJECT_NAME    = STARLINK-36428
OBJECT_ID      = 2026-003AE
CENTER_NAME    = EARTH
REF_FRAME      = TEME
TIME_SYSTEM    = UTC
MEAN_ELEMENT_THEORY = SGP/SGP4

EPOCH          = 2026-01-17T06:00:02.000160
MEAN_MOTION    = 15.95494317
ECCENTRICITY   = .00015359
INCLINATION    = 42.9982
RA_OF_ASC_NODE = 165.4783
ARG_OF_PERICENTER = 271.1182
MEAN_ANOMALY   = 197.3275

EPHEMERIS_TYPE = 0
CLASSIFICATION_TYPE = U
NORAD_CAT_ID   = 67362
ELEMENT_SET_NO = 999
REV_AT_EPOCH   = 240
BSTAR          = -.40696271E-2
MEAN_MOTION_DOT = -.1677649E-1
MEAN_MOTION_DDOT = .80728782E-3

CCSDS_OMM_VERS = 2.0
CREATION_DATE  = 
ORIGINATOR     = 

OBJECT_NAME    = SHIJIAN-29B (SJ-29B)
OBJECT_ID      = 2025-315C
CENTER_NAME    = EARTH
REF_FRAME      = TEME
TIME_SYSTEM    = UTC
MEAN_ELEMENT_THEORY = SGP/SGP4

EPOCH          = 2026-01-17T02:22:49.259136
MEAN_MOTION    = 1.00271776
ECCENTRICITY   = .00008881
INCLINATION    = 3.0148
RA_OF_ASC_NODE = 99.1080
ARG_OF_PERICENTER = 326.8042
MEAN_ANOMALY   = 159.4113

EPHEMERIS_TYPE = 0
CLASSIFICATION_TYPE = U
NORAD_CAT_ID   = 67403
ELEMENT_SET_NO = 999
REV_AT_EPOCH   = 17
BSTAR          = 0
MEAN_MOTION_DOT = -.53E-6
MEAN_MOTION_DDOT = 0

CCSDS_OMM_VERS = 2.0
CREATION_DATE  = 
ORIGINATOR     = 

OBJECT_NAME    = YAOGAN-50 01
OBJECT_ID      = 2026-006A
CENTER_NAME    = EARTH
REF_FRAME      = TEME
TIME_SYSTEM    = UTC
MEAN_ELEMENT_THEORY = SGP/SGP4

EPOCH          = 2026-01-16T04:17:29.045760
MEAN_MOTION    = 14.21837795
ECCENTRICITY   = .01649624
INCLINATION    = 141.9984
RA_OF_ASC_NODE = 200.7842
ARG_OF_PERICENTER = 123.7171
MEAN_ANOMALY   = 237.9391

EPHEMERIS_TYPE = 0
CLASSIFICATION_TYPE = U
NORAD_CAT_ID   = 67433
ELEMENT_SET_NO = 999
REV_AT_EPOCH   = 37
BSTAR          = .12657815E-3
MEAN_MOTION_DOT = .537E-5
MEAN_MOTION_DDOT = 0

CCSDS_OMM_VERS = 2.0
CREATION_DATE  = 
ORIGINATOR     = 

OBJECT_NAME    = CZ-6A R/B
OBJECT_ID      = 2026-006B
CENTER_NAME    = EARTH
REF_FRAME      = TEME
TIME_SYSTEM    = UTC
MEAN_ELEMENT_THEORY = SGP/SGP4

EPOCH          = 2026-01-13T17:12:57.362112
MEAN_MOTION    = 14.62247694
ECCENTRICITY   = .02017257
INCLINATION    = 142.0438
RA_OF_ASC_NODE = 188.1412
ARG_OF_PERICENTER = 82.0696
MEAN_ANOMALY   = 280.2897

EPHEMERIS_TYPE = 0
CLASSIFICATION_TYPE = U
NORAD_CAT_ID   = 67434
ELEMENT_SET_NO = 999
REV_AT_EPOCH   = 2
BSTAR          = .30805067E-4
MEAN_MOTION_DOT = .541E-5
MEAN_MOTION_DDOT = 0

CCSDS_OMM_VERS = 2.0
CREATION_DATE  = 
ORIGINATOR     = 

OBJECT_NAME    = HULIANWANG DIGUI 18A
OBJECT_ID      = 2026-007A
CENTER_NAME    = EARTH
REF_FRAME      = TEME
TIME_SYSTEM    = UTC
MEAN_ELEMENT_THEORY = SGP/SGP4

EPOCH          = 2026-01-16T09:58:33.239136
MEAN_MOTION    = 13.92120172
ECCENTRICITY   = .00084289
INCLINATION    = 50.0089
RA_OF_ASC_NODE = 283.4039
ARG_OF_PERICENTER = 279.5288
MEAN_ANOMALY   = 80.4659

EPHEMERIS_TYPE = 0
CLASSIFICATION_TYPE = U
NORAD_CAT_ID   = 67435
ELEMENT_SET_NO = 999
REV_AT_EPOCH   = 39
BSTAR          = .23935441E-4
MEAN_MOTION_DOT = -.116E-5
MEAN_MOTION_DDOT = 0

CCSDS_OMM_VERS = 2.0
CREATION_DATE  = 
ORIGINATOR     = 

OBJECT_NAME    = HULIANWANG DIGUI 18B
OBJECT_ID      = 2026-007B
CENTER_NAME    = EARTH
REF_FRAME      = TEME
TIME_SYSTEM    = UTC
MEAN_ELEMENT_THEORY = SGP/SGP4

EPOCH          = 2026-01-16T09:58:52.592736
MEAN_MOTION    = 13.92012828
ECCENTRICITY   = .00075001
INCLINATION    = 50.0068
RA_OF_ASC_NODE = 283.4030
ARG_OF_PERICENTER = 267.7404
MEAN_ANOMALY   = 92.2637

EPHEMERIS_TYPE = 0
CLASSIFICATION_TYPE = U
NORAD_CAT_ID   = 67436
ELEMENT_SET_NO = 999
REV_AT_EPOCH   = 39
BSTAR          = .23911394E-4
MEAN_MOTION_DOT = -.116E-5
MEAN_MOTION_DDOT = 0

CCSDS_OMM_VERS = 2.0
CREATION_DATE  = 
ORIGINATOR     = 

OBJECT_NAME    = HULIANWANG DIGUI 18C
OBJECT_ID      = 2026-007C
CENTER_NAME    = EARTH
REF_FRAME      = TEME
TIME_SYSTEM    = UTC
MEAN_ELEMENT_THEORY = SGP/SGP4

EPOCH          = 2026-01-17T01:29:07.608768
MEAN_MOTION    = 13.92053046
ECCENTRICITY   = .00081787
INCLINATION    = 50.0026
RA_OF_ASC_NODE = 280.8194
ARG_OF_PERICENTER = 276.7059
MEAN_ANOMALY   = 83.2909

EPHEMERIS_TYPE = 0
CLASSIFICATION_TYPE = U
NORAD_CAT_ID   = 67437
ELEMENT_SET_NO = 999
REV_AT_EPOCH   = 48
BSTAR          = .8397234E-4
MEAN_MOTION_DOT = -.39E-6
MEAN_MOTION_DDOT = 0

